[{"OBJECT_NAME":"STARLINK-1816","OBJECT_ID":"2020-073AW","EPOCH":"2026-03-10T00:00:02.999808","MEAN_MOTION":15.7373021,"ECCENTRICITY":0.00013796,"INCLINATION":53.0412,"RA_OF_ASC_NODE":197.1696,"ARG_OF_PERICENTER":136.5835,"MEAN_ANOMALY":114.6456,"EPHEMERIS_TYPE":0,"CLASSIFICATION_TYPE":"U","NORAD_CAT_ID":46714,"ELEMENT_SET_NO":999,"REV_AT_EPOCH":597,"BSTAR":0.00068317035,"MEAN_MOTION_DOT":0.00098636,"MEAN_MOTION_DDOT":0},{"OBJECT_NAME":"STARLINK-11417 [DTC]","OBJECT_ID":"2025-031C","EPOCH":"2026-03-09T05:13:20.003232","MEAN_MOTION":15.70872456,"ECCENTRICITY":0.00022374,"INCLINATION":42.9999,"RA_OF_ASC_NODE":4.7105,"ARG_OF_PERICENTER":244.1937,"MEAN_ANOMALY":115.87,"EPHEMERIS_TYPE":0,"CLASSIFICATION_TYPE":"U","NORAD_CAT_ID":62983,"ELEMENT_SET_NO":999,"REV_AT_EPOCH":6266,"BSTAR":0.0012060587,"MEAN_MOTION_DOT":0.00157492,"MEAN_MOTION_DDOT":0}]
